<?xml version="1.0" encoding="UTF-8"?>
<ndm xmlns:xsi="http://www.w3.org/2001/XMLSchema-instance" xsi:noNamespaceSchemaLocation="https://sanaregistry.org/r/ndmxml_unqualified/ndmxml-2.0.0-master-2.0.xsd">
<omm id="CCSDS_OMM_VERS" version="2.0">
<header><CREATION_DATE/><ORIGINATOR/></header><body><segment><metadata><OBJECT_NAME>ORBCOMM FM24 [-]</OBJECT_NAME><OBJECT_ID>1998-053D</OBJECT_ID><CENTER_NAME>EARTH</CENTER_NAME><REF_FRAME>TEME</REF_FRAME><TIME_SYSTEM>UTC</TIME_SYSTEM><MEAN_ELEMENT_THEORY>SGP4</MEAN_ELEMENT_THEORY></metadata><data><meanElements><EPOCH>2023-10-28T18:53:13.275744</EPOCH><MEAN_MOTION>14.34824345</MEAN_MOTION><ECCENTRICITY>.0000929</ECCENTRICITY><INCLINATION>45.0086</INCLINATION><RA_OF_ASC_NODE>213.7336</RA_OF_ASC_NODE><ARG_OF_PERICENTER>30.1766</ARG_OF_PERICENTER><MEAN_ANOMALY>329.9134</MEAN_ANOMALY></meanElements><tleParameters><EPHEMERIS_TYPE>0</EPHEMERIS_TYPE><CLASSIFICATION_TYPE>U</CLASSIFICATION_TYPE><NORAD_CAT_ID>25478</NORAD_CAT_ID><ELEMENT_SET_NO>999</ELEMENT_SET_NO><REV_AT_EPOCH>31183</REV_AT_EPOCH><BSTAR>.65761E-3</BSTAR><MEAN_MOTION_DOT>.1742E-4</MEAN_MOTION_DOT><MEAN_MOTION_DDOT>0</MEAN_MOTION_DDOT></tleParameters></data></segment></body></omm>
<omm id="CCSDS_OMM_VERS" version="2.0">
<header><CREATION_DATE/><ORIGINATOR/></header><body><segment><metadata><OBJECT_NAME>ORBCOMM FM25 [-]</OBJECT_NAME><OBJECT_ID>1998-053E</OBJECT_ID><CENTER_NAME>EARTH</CENTER_NAME><REF_FRAME>TEME</REF_FRAME><TIME_SYSTEM>UTC</TIME_SYSTEM><MEAN_ELEMENT_THEORY>SGP4</MEAN_ELEMENT_THEORY></metadata><data><meanElements><EPOCH>2023-10-28T11:20:21.198048</EPOCH><MEAN_MOTION>14.34803895</MEAN_MOTION><ECCENTRICITY>.0002398</ECCENTRICITY><INCLINATION>45.0076</INCLINATION><RA_OF_ASC_NODE>213.4509</RA_OF_ASC_NODE><ARG_OF_PERICENTER>121.4516</ARG_OF_PERICENTER><MEAN_ANOMALY>238.6565</MEAN_ANOMALY></meanElements><tleParameters><EPHEMERIS_TYPE>0</EPHEMERIS_TYPE><CLASSIFICATION_TYPE>U</CLASSIFICATION_TYPE><NORAD_CAT_ID>25479</NORAD_CAT_ID><ELEMENT_SET_NO>999</ELEMENT_SET_NO><REV_AT_EPOCH>31180</REV_AT_EPOCH><BSTAR>.63217E-3</BSTAR><MEAN_MOTION_DOT>.1669E-4</MEAN_MOTION_DOT><MEAN_MOTION_DDOT>0</MEAN_MOTION_DDOT></tleParameters></data></segment></body></omm>
<omm id="CCSDS_OMM_VERS" version="2.0">
<header><CREATION_DATE/><ORIGINATOR/></header><body><segment><metadata><OBJECT_NAME>ORBCOMM FM26 [-]</OBJECT_NAME><OBJECT_ID>1998-053F</OBJECT_ID><CENTER_NAME>EARTH</CENTER_NAME><REF_FRAME>TEME</REF_FRAME><TIME_SYSTEM>UTC</TIME_SYSTEM><MEAN_ELEMENT_THEORY>SGP4</MEAN_ELEMENT_THEORY></metadata><data><meanElements><EPOCH>2023-10-28T18:14:37.894848</EPOCH><MEAN_MOTION>14.34366784</MEAN_MOTION><ECCENTRICITY>.0004394</ECCENTRICITY><INCLINATION>45.0070</INCLINATION><RA_OF_ASC_NODE>205.4847</RA_OF_ASC_NODE><ARG_OF_PERICENTER>158.3520</ARG_OF_PERICENTER><MEAN_ANOMALY>201.7514</MEAN_ANOMALY></meanElements><tleParameters><EPHEMERIS_TYPE>0</EPHEMERIS_TYPE><CLASSIFICATION_TYPE>U</CLASSIFICATION_TYPE><NORAD_CAT_ID>25480</NORAD_CAT_ID><ELEMENT_SET_NO>999</ELEMENT_SET_NO><REV_AT_EPOCH>31189</REV_AT_EPOCH><BSTAR>.53919E-3</BSTAR><MEAN_MOTION_DOT>.1389E-4</MEAN_MOTION_DOT><MEAN_MOTION_DDOT>0</MEAN_MOTION_DDOT></tleParameters></data></segment></body></omm>
<omm id="CCSDS_OMM_VERS" version="2.0">
<header><CREATION_DATE/><ORIGINATOR/></header><body><segment><metadata><OBJECT_NAME>ORBCOMM FM27 [+]</OBJECT_NAME><OBJECT_ID>1998-053G</OBJECT_ID><CENTER_NAME>EARTH</CENTER_NAME><REF_FRAME>TEME</REF_FRAME><TIME_SYSTEM>UTC</TIME_SYSTEM><MEAN_ELEMENT_THEORY>SGP4</MEAN_ELEMENT_THEORY></metadata><data><meanElements><EPOCH>2023-10-28T10:58:43.755168</EPOCH><MEAN_MOTION>14.34778579</MEAN_MOTION><ECCENTRICITY>.0001763</ECCENTRICITY><INCLINATION>45.0060</INCLINATION><RA_OF_ASC_NODE>213.7781</RA_OF_ASC_NODE><ARG_OF_PERICENTER>327.8422</ARG_OF_PERICENTER><MEAN_ANOMALY>32.2317</MEAN_ANOMALY></meanElements><tleParameters><EPHEMERIS_TYPE>0</EPHEMERIS_TYPE><CLASSIFICATION_TYPE>U</CLASSIFICATION_TYPE><NORAD_CAT_ID>25481</NORAD_CAT_ID><ELEMENT_SET_NO>999</ELEMENT_SET_NO><REV_AT_EPOCH>31173</REV_AT_EPOCH><BSTAR>.61321E-3</BSTAR><MEAN_MOTION_DOT>.1614E-4</MEAN_MOTION_DOT><MEAN_MOTION_DDOT>0</MEAN_MOTION_DDOT></tleParameters></data></segment></body></omm>
<omm id="CCSDS_OMM_VERS" version="2.0">
<header><CREATION_DATE/><ORIGINATOR/></header><body><segment><metadata><OBJECT_NAME>ORBCOMM FM28 [-]</OBJECT_NAME><OBJECT_ID>1998-053H</OBJECT_ID><CENTER_NAME>EARTH</CENTER_NAME><REF_FRAME>TEME</REF_FRAME><TIME_SYSTEM>UTC</TIME_SYSTEM><MEAN_ELEMENT_THEORY>SGP4</MEAN_ELEMENT_THEORY></metadata><data><meanElements><EPOCH>2023-10-28T07:09:48.350592</EPOCH><MEAN_MOTION>14.35263859</MEAN_MOTION><ECCENTRICITY>.0003419</ECCENTRICITY><INCLINATION>45.0055</INCLINATION><RA_OF_ASC_NODE>153.6897</RA_OF_ASC_NODE><ARG_OF_PERICENTER>176.4553</ARG_OF_PERICENTER><MEAN_ANOMALY>183.6319</MEAN_ANOMALY></meanElements><tleParameters><EPHEMERIS_TYPE>0</EPHEMERIS_TYPE><CLASSIFICATION_TYPE>U</CLASSIFICATION_TYPE><NORAD_CAT_ID>25482</NORAD_CAT_ID><ELEMENT_SET_NO>999</ELEMENT_SET_NO><REV_AT_EPOCH>31237</REV_AT_EPOCH><BSTAR>.46842E-3</BSTAR><MEAN_MOTION_DOT>.1212E-4</MEAN_MOTION_DOT><MEAN_MOTION_DDOT>0</MEAN_MOTION_DDOT></tleParameters></data></segment></body></omm>
<omm id="CCSDS_OMM_VERS" version="2.0">
<header><CREATION_DATE/><ORIGINATOR/></header><body><segment><metadata><OBJECT_NAME>ORBCOMM FM30 [-]</OBJECT_NAME><OBJECT_ID>1999-065A</OBJECT_ID><CENTER_NAME>EARTH</CENTER_NAME><REF_FRAME>TEME</REF_FRAME><TIME_SYSTEM>UTC</TIME_SYSTEM><MEAN_ELEMENT_THEORY>SGP4</MEAN_ELEMENT_THEORY></metadata><data><meanElements><EPOCH>2023-10-28T16:06:17.338464</EPOCH><MEAN_MOTION>14.34496496</MEAN_MOTION><ECCENTRICITY>.0007514</ECCENTRICITY><INCLINATION>45.0332</INCLINATION><RA_OF_ASC_NODE>31.2406</RA_OF_ASC_NODE><ARG_OF_PERICENTER>252.3810</ARG_OF_PERICENTER><MEAN_ANOMALY>107.6216</MEAN_ANOMALY></meanElements><tleParameters><EPHEMERIS_TYPE>0</EPHEMERIS_TYPE><CLASSIFICATION_TYPE>U</CLASSIFICATION_TYPE><NORAD_CAT_ID>25980</NORAD_CAT_ID><ELEMENT_SET_NO>999</ELEMENT_SET_NO><REV_AT_EPOCH>24910</REV_AT_EPOCH><BSTAR>.59551E-3</BSTAR><MEAN_MOTION_DOT>.1554E-4</MEAN_MOTION_DOT><MEAN_MOTION_DDOT>0</MEAN_MOTION_DDOT></tleParameters></data></segment></body></omm>
<omm id="CCSDS_OMM_VERS" version="2.0">
<header><CREATION_DATE/><ORIGINATOR/></header><body><segment><metadata><OBJECT_NAME>ORBCOMM FM31 [-]</OBJECT_NAME><OBJECT_ID>1999-065B</OBJECT_ID><CENTER_NAME>EARTH</CENTER_NAME><REF_FRAME>TEME</REF_FRAME><TIME_SYSTEM>UTC</TIME_SYSTEM><MEAN_ELEMENT_THEORY>SGP4</MEAN_ELEMENT_THEORY></metadata><data><meanElements><EPOCH>2023-10-28T15:19:19.625376</EPOCH><MEAN_MOTION>14.34525617</MEAN_MOTION><ECCENTRICITY>.0004485</ECCENTRICITY><INCLINATION>45.0248</INCLINATION><RA_OF_ASC_NODE>25.2455</RA_OF_ASC_NODE><ARG_OF_PERICENTER>265.4362</ARG_OF_PERICENTER><MEAN_ANOMALY>94.5973</MEAN_ANOMALY></meanElements><tleParameters><EPHEMERIS_TYPE>0</EPHEMERIS_TYPE><CLASSIFICATION_TYPE>U</CLASSIFICATION_TYPE><NORAD_CAT_ID>25981</NORAD_CAT_ID><ELEMENT_SET_NO>999</ELEMENT_SET_NO><REV_AT_EPOCH>24909</REV_AT_EPOCH><BSTAR>.60255E-3</BSTAR><MEAN_MOTION_DOT>.1574E-4</MEAN_MOTION_DOT><MEAN_MOTION_DDOT>0</MEAN_MOTION_DDOT></tleParameters></data></segment></body></omm>
<omm id="CCSDS_OMM_VERS" version="2.0">
<header><CREATION_DATE/><ORIGINATOR/></header><body><segment><metadata><OBJECT_NAME>ORBCOMM FM32 [+]</OBJECT_NAME><OBJECT_ID>1999-065C</OBJECT_ID><CENTER_NAME>EARTH</CENTER_NAME><REF_FRAME>TEME</REF_FRAME><TIME_SYSTEM>UTC</TIME_SYSTEM><MEAN_ELEMENT_THEORY>SGP4</MEAN_ELEMENT_THEORY></metadata><data><meanElements><EPOCH>2023-10-28T13:09:39.170592</EPOCH><MEAN_MOTION>14.33465911</MEAN_MOTION><ECCENTRICITY>.0006414</ECCENTRICITY><INCLINATION>45.0173</INCLINATION><RA_OF_ASC_NODE>38.0402</RA_OF_ASC_NODE><ARG_OF_PERICENTER>271.3241</ARG_OF_PERICENTER><MEAN_ANOMALY>88.6871</MEAN_ANOMALY></meanElements><tleParameters><EPHEMERIS_TYPE>0</EPHEMERIS_TYPE><CLASSIFICATION_TYPE>U</CLASSIFICATION_TYPE><NORAD_CAT_ID>25982</NORAD_CAT_ID><ELEMENT_SET_NO>999</ELEMENT_SET_NO><REV_AT_EPOCH>24876</REV_AT_EPOCH><BSTAR>.5669E-3</BSTAR><MEAN_MOTION_DOT>.144E-4</MEAN_MOTION_DOT><MEAN_MOTION_DDOT>0</MEAN_MOTION_DDOT></tleParameters></data></segment></body></omm>

</ndm>
