ORBCOMM FM24 [-]        
1 25478U 98053D   23301.78695921  .00001742  00000+0  65761-3 0  9998
2 25478  45.0086 213.7336 0000929  30.1766 329.9134 14.34824345311834
ORBCOMM FM25 [-]        
1 25479U 98053E   23301.47246757  .00001669  00000+0  63217-3 0  9996
2 25479  45.0076 213.4509 0002398 121.4516 238.6565 14.34803895311800
ORBCOMM FM26 [-]        
1 25480U 98053F   23301.76016082  .00001389  00000+0  53919-3 0  9993
2 25480  45.0070 205.4847 0004394 158.3520 201.7514 14.34366784311899
ORBCOMM FM27 [+]        
1 25481U 98053G   23301.45745087  .00001614  00000+0  61321-3 0  9991
2 25481  45.0060 213.7781 0001763 327.8422  32.2317 14.34778579311739
ORBCOMM FM28 [-]        
1 25482U 98053H   23301.29847628  .00001212  00000+0  46842-3 0  9993
2 25482  45.0055 153.6897 0003419 176.4553 183.6319 14.35263859312372
ORBCOMM FM30 [-]        
1 25980U 99065A   23301.67103401  .00001554  00000+0  59551-3 0  9996
2 25980  45.0332  31.2406 0007514 252.3810 107.6216 14.34496496249106
ORBCOMM FM31 [-]        
1 25981U 99065B   23301.63842159  .00001574  00000+0  60255-3 0  9998
2 25981  45.0248  25.2455 0004485 265.4362  94.5973 14.34525617249091
ORBCOMM FM32 [+]        
1 25982U 99065C   23301.54837003  .00001440  00000+0  56690-3 0  9991
2 25982  45.0173  38.0402 0006414 271.3241  88.6871 14.33465911248762
